[
    {
        "Altitude(m)": 611967.1657398341,
        "Argument of Periapsis(deg)": 0.0,
        "Eccentricity": 0.0,
        "Inclination(deg)": 60.0,
        "Latitude(deg)": 59.14012158692345,
        "Longitude(deg)": -153.90776570777408,
        "Mean Anomaly(deg)": 98.18179999999997,
        "RAAN(deg)": 200.0,
        "Satellite Name": "Test1 886",
        "Satellite Number": 886,
        "Semi-Major Axis(m)": 6980739.136638005,
        "Time(s)": 0
    },
    {
        "Altitude(m)": 611934.3648808531,
        "Argument of Periapsis(deg)": 0.00010418945913296404,
        "Eccentricity": 0.0,
        "Inclination(deg)": 60.0,
        "Latitude(deg)": 58.98648170256001,
        "Longitude(deg)": -152.78452238028686,
        "Mean Anomaly(deg)": 98.80190614546183,
        "RAAN(deg)": 199.99957995086027,
        "Satellite Name": "Test1 886",
        "Satellite Number": 886,
        "Semi-Major Axis(m)": 6980739.136638005,
        "Time(s)": 10
    }
]